SatCatId,ObjectName,LaunchYear,OrbitalPeriod,LaunchMass,StatusCode,Inclination,Status,UcsData,OrbitClassEstimated,LaunchSiteCountry,Owner,UseType,Purpose,LaunchVehicleClass,TLE1,TLE2,MeanMotion,Eccentricity,OrbitClass
16962,COSMOS 1779 [GLONASS],1986,675.73,-1.0,-,64.55,Inactive,0,MEO,Kazakhstan,Russia/USSR,Unknown,Unknown,Unknown,1 16962U 86071B   24258.06739479  .00000069  00000+0  00000+0 0  9995,2 16962  64.5476  94.4241 0012559  44.3329 138.4826  2.13102937295588,2.13102937,0.0012559,MEO
16963,COSMOS 1780 [GLONASS],1986,675.71,-1.0,-,64.53,Inactive,0,MEO,Kazakhstan,Russia/USSR,Unknown,Unknown,Unknown,1 16963U 86071C   24256.17202115  .00000053  00000+0  00000+0 0  9991,2 16963  64.5350  94.2053 0002587 345.7547 194.4516  2.13107821295629,2.13107821,0.0002587,MEO
25157,GFO,1998,94.51,-1.0,-,108.03,Inactive,0,LEO,USA,USA,Unknown,Unknown,Unknown,1 25157U 98007A   24259.11823660  .00036461  00000+0  12493-2 0  9993,2 25157 108.0266  28.4031 0117026 221.4579 137.7684 15.23772106427429,15.23772106,0.0117026,LEO
8774,SATCOM 2,1976,1460.13,-1.0,UNK,10.23,Inactive,0,GSO,USA,USA,Unknown,Unknown,Unknown,1 08774U 76029A   24257.73754876  .00000026  00000+0  00000+0 0  9993,2 08774  10.2291 313.5051 0060055 220.4411 139.1296  0.98621206113203,0.98621206,0.0060055,GSO
25158,ORBCOMM FM03,1998,100.5,-1.0,-,107.97,Inactive,0,LEO,USA,ORBCOMM,Unknown,Unknown,Unknown,1 25158U 98007B   24258.89533134  .00003884  00000+0  14498-2 0  9992,2 25158 107.9737 290.6375 0046076   7.5436 352.6387 14.32890634384589,14.32890634,0.0046076,LEO
16969,NOAA 10,1986,100.79,-1.0,-,98.65,Inactive,0,LEO,USA,USA,Unknown,Unknown,Unknown,1 16969U 86073A   24258.92149333  .00000834  00000+0  34845-3 0  9991,2 16969  98.6500 244.0505 0013332  71.4968 350.1178 14.28725056977961,14.28725056,0.0013332,LEO
25162,GLOBALSTAR M001,1998,116.3,-1.0,-,52.0,Inactive,0,LEO,USA,Globalstar,Unknown,Unknown,Unknown,1 25162U 98008A   24259.19325023 -.00000073  00000+0  17999-3 0  9996,2 25162  52.0040  53.6049 0002072  53.9089 116.5321 12.38194555209756,12.38194555,0.0002072,LEO
25163,GLOBALSTAR M004,1998,113.98,-1.0,-,52.0,Inactive,0,LEO,USA,Globalstar,Unknown,Unknown,Unknown,1 25163U 98008B   24259.17894125 -.00000061  00000+0  23508-3 0  9999,2 25163  51.9991 173.1231 0003618  43.0653 133.7648 12.63371834227023,12.63371834,0.0003618,LEO
25164,GLOBALSTAR M002,1998,123.98,-1.0,-,52.0,Inactive,0,LEO,USA,Globalstar,Unknown,Unknown,Unknown,1 25164U 98008C   24258.86714776 -.00000055  00000+0  42847-3 0  9998,2 25164  51.9996 210.5204 0001782  10.7674 349.3184 11.61504076152142,11.61504076,0.0001782,LEO
25165,GLOBALSTAR M003,1998,118.81,-1.0,-,51.99,Inactive,0,LEO,USA,Globalstar,Unknown,Unknown,Unknown,1 25165U 98008D   24258.62627007  .00000058  00000+0  15681-2 0  9990,2 25165  51.9912 211.7025 0008283  98.1116  73.2494 12.12036387199802,12.12036387,0.0008283,LEO
41554,COSMOS 2516 [GLONASS-M],2016,675.72,1415.0,-,63.85,Inactive,1,MEO,Russia,Russia/USSR,Commercial/Military,Navigation (Global or Regional Positioning),Soyuz,1 41554U 16032A   24255.56434272  .00000057  00000+0  00000+0 0  9992,2 41554  63.8485 213.1792 0016249 213.4520 146.4388  2.13106355 64515,2.13106355,0.0016249,MEO
25175,KAKEHASHI (COMETS),1998,328.08,-1.0,-,30.12,Inactive,0,MEO,Japan,Japan,Unknown,Unknown,Unknown,1 25175U 98011A   24258.35990748 -.00000058  00000+0  00000+0 0  9997,2 25175  30.1167 289.9264 5295064  65.1130 340.1211  4.38923698434710,4.38923698,0.5295064,MEO
16986,COSMOS 1782,1986,94.78,-1.0,UNK,82.53,Inactive,0,LEO,Russia,Russia/USSR,Unknown,Unknown,Unknown,1 16986U 86074A   24258.84939729  .00017217  00000+0  81237-3 0  9998,2 16986  82.5302  59.5515 0006586 323.5058  36.5727 15.19332997 48789,15.19332997,0.0006586,LEO
8799,METEOR 1-24,1976,102.0,-1.0,UNK,81.26,Inactive,0,LEO,Russia,Russia/USSR,Unknown,Unknown,Unknown,1 08799U 76032A   24258.92915628  .00000137  00000+0  68366-4 0  9997,2 08799  81.2557 132.5137 0033701 231.6836 128.1305 14.11735037493635,14.11735037,0.0033701,LEO
16993,COSMOS 1783,1986,107.46,-1.0,UNK,62.03,Inactive,0,LEO,Russia,Russia/USSR,Unknown,Unknown,Unknown,1 16993U 86075A   24259.22021953  .01537611  48339-5  43507-3 0  9998,2 16993  62.0257 238.3364 1278247  85.4955 289.0589 13.42382841622960,13.42382841,0.1278247,LEO
33378,COSMOS 2442 [GLONASS-M],2008,675.71,-1.0,-,65.79,Inactive,0,MEO,Kazakhstan,Russia/USSR,Unknown,Unknown,Unknown,1 33378U 08046A   24258.68270350 -.00000048  00000+0  00000+0 0  9995,2 33378  65.7935 336.4183 0019018 302.8178  53.6283  2.13107974124296,2.13107974,0.0019018,MEO
33379,COSMOS 2443 [GLONASS-M],2008,675.74,-1.0,-,65.8,Inactive,0,MEO,Kazakhstan,Russia/USSR,Unknown,Unknown,Unknown,1 33379U 08046B   24257.60820801 -.00000051  00000+0  00000+0 0  9993,2 33379  65.8048 336.5637 0014630 176.1246 167.1759  2.13098323124275,2.13098323,0.001463,MEO
33380,COSMOS 2444 [GLONASS-M],2008,675.7,-1.0,-,65.81,Inactive,0,MEO,Kazakhstan,Russia/USSR,Unknown,Unknown,Unknown,1 33380U 08046C   24258.37189465 -.00000049  00000+0  00000+0 0  9991,2 33380  65.8131 336.5843 0019662 292.6709  61.0376  2.13112233124282,2.13112233,0.0019662,MEO
8808,NATO 3A,1976,1442.14,-1.0,UNK,6.45,Inactive,0,GSO,USA,NATO,Unknown,Unknown,Unknown,1 08808U 76035A   24258.87147959 -.00000155  00000+0  00000+0 0  9996,2 08808   6.4454 301.3764 0024790 306.0785  51.4970  0.99851860740872,0.9985186,0.002479,GSO
33393,DEMOSAT/FALCON 1,2008,96.57,-1.0,UNK,9.34,Inactive,0,LEO,USA,USA,Unknown,Unknown,Unknown,1 33393U 08048A   24259.20222838  .00008194  00000+0  73668-3 0  9994,2 33393   9.3446 155.3903 0012235 226.1754 133.7434 14.91112398867033,14.91112398,0.0012235,LEO
8818,OPS 6431,1976,103.53,-1.0,UNK,63.35,Inactive,0,LEO,USA,USA,Unknown,Unknown,Unknown,1 08818U 76038A   24259.19277838  .00002632  00000+0  10322-2 0  9998,2 08818  63.3504  63.0999 0429227 173.6526 187.0217 13.90903095 18172,13.90903095,0.0429227,LEO
8835,SSU 1,1976,104.16,-1.0,UNK,63.35,Inactive,0,LEO,USA,USA,Unknown,Unknown,Unknown,1 08835U 76038C   24259.19069548  .00000564  00000+0  28476-3 0  9996,2 08835  63.3525 223.9789 0451836 171.7085 189.1765 13.82462086270316,13.82462086,0.0451836,LEO
8836,SSU 2,1976,104.17,-1.0,UNK,63.35,Inactive,0,LEO,USA,USA,Unknown,Unknown,Unknown,1 08836U 76038D   24258.31357276  .00000608  00000+0  30524-3 0  9994,2 08836  63.3522 228.2052 0450847 171.9372 188.9249 13.82316351262663,13.82316351,0.0450847,LEO
33414,VENESAT-1,2008,1450.59,-1.0,-,4.1,Inactive,0,GSO,PRC,Venezuela,Unknown,Unknown,Unknown,1 33414U 08055A   24259.03783291 -.00000186  00000+0  00000+0 0  9992,2 33414   4.1032  80.6533 0063680 174.4459 222.5321  0.99269874 57978,0.99269874,0.006368,GSO
8838,COMSTAR 1,1976,1442.53,-1.0,UNK,9.34,Inactive,0,GSO,USA,USA,Unknown,Unknown,Unknown,1 08838U 76042A   24258.86370737 -.00000344  00000+0  00000+0 0  9998,2 08838   9.3338 309.4001 0002706 291.8908 183.5849  0.99823820114188,0.9982382,0.0002706,GSO
8845,METEOR 1-25,1976,102.01,-1.0,UNK,81.26,Inactive,0,LEO,Russia,Russia/USSR,Unknown,Unknown,Unknown,1 08845U 76043A   24259.15622488  .00000348  00000+0  18353-3 0  9990,2 08845  81.2618 219.2311 0038906 310.6338  49.1452 14.11692961634910,14.11692961,0.0038906,LEO
25237,EUTELSAT 16B,1998,1465.27,-1.0,-,9.7,Inactive,0,GSO,French Guiana,EUTELSAT,Unknown,Unknown,Unknown,1 25237U 98013A   24258.92630111 -.00000018  00000+0  00000+0 0  9992,2 25237   9.6969  51.6464 0001067 143.4285  39.8278  0.98275207 96852,0.98275207,0.0001067,GSO
17046,RADUGA 19,1986,1462.5,-1.0,-,12.1,Inactive,0,GSO,Kazakhstan,Russia/USSR,Unknown,Unknown,Unknown,1 17046U 86082A   24258.07851546 -.00000186  00000+0  00000+0 0  9993,2 17046  12.1039 329.5018 0014107 178.4572 193.8234  0.98461539136602,0.98461539,0.0014107,GSO
25239,NSS-806,1998,1453.36,-1.0,-,5.48,Inactive,0,GSO,USA,SES,Unknown,Unknown,Unknown,1 25239U 98014A   24258.86739622 -.00000245  00000+0  00000+0 0  9997,2 25239   5.4806  77.3535 0007009  73.0178 126.7557  0.99080310 40623,0.9908031,0.0007009,GSO
8860,P 76-5,1976,105.26,-1.0,UNK,99.94,Inactive,0,LEO,USA,USA,Unknown,Unknown,Unknown,1 08860U 76047A   24258.74582456  .00000443  00000+0  57316-3 0  9993,2 08860  99.9449  83.1071 0041759 184.1159 187.5346 13.68046645408811,13.68046645,0.0041759,LEO
8873,COSMOS 823,1976,104.85,-1.0,UNK,82.96,Inactive,0,LEO,Russia,Russia/USSR,Unknown,Unknown,Unknown,1 08873U 76051A   24258.91395427  .00000173  00000+0  17004-3 0  9991,2 08873  82.9625 247.8287 0022054 194.6725 228.3977 13.73449632419256,13.73449632,0.0022054,LEO
17066,COSMOS 1791,1986,104.65,-1.0,UNK,82.95,Inactive,0,LEO,Russia,Russia/USSR,Unknown,Unknown,Unknown,1 17066U 86086A   24258.87646630  .00000217  00000+0  20684-3 0  9991,2 17066  82.9512  16.2842 0039968 227.5774 249.4794 13.75950674900130,13.75950674,0.0039968,LEO
25258,UFO 8 (USA 138),1998,1435.43,3206.0,-,10.35,Inactive,1,GSO,USA,USA,Military,Communications,Atlas,1 25258U 98016A   24258.11646642  .00000015  00000+0  00000+0 0  9991,2 25258  10.3533  26.2685 0006585 211.8420 160.9191  1.00318498 97434,1.00318498,0.0006585,GSO
25260,SPOT 4,1998,98.97,-1.0,-,98.26,Inactive,0,LEO,French Guiana,France,Unknown,Unknown,Unknown,1 25260U 98017A   24259.20161844  .00001987  00000+0  47127-3 0  9996,2 25260  98.2563 351.4775 0013536  45.7305 314.5000 14.55022436386444,14.55022436,0.0013536,LEO
33453,CIEL-2,2008,1454.22,-1.0,-,1.1,Inactive,1,GSO,Kazakhstan,Canada,Commercial,Communications,Proton,1 33453U 08063A   24258.85627554 -.00000050  00000+0  00000+0 0  9992,2 33453   1.1046  89.4941 0004127  19.6375 108.0294  0.99021361 57672,0.99021361,0.0004127,GSO
17070,POLAR BEAR,1986,104.72,-1.0,UNK,89.61,Inactive,0,LEO,USA,USA,Unknown,Unknown,Unknown,1 17070U 86088A   24258.87054484  .00000391  00000+0  39506-3 0  9994,2 17070  89.6102 202.0256 0041182  51.6147   2.5696 13.75096576897416,13.75096576,0.0041182,LEO
